COSMOS 2426 (717)       
1 29671U 06062B   19235.44617333  .00000049  00000-0  10000-3 0  9997
2 29671  65.0879 278.0186 0021198 179.4353 152.3303  2.12961963 98527
COSMOS 2433 (720)       
1 32275U 07052A   19232.68067047 -.00000022  00000-0  10000-3 0  9997
2 32275  65.8799  38.9849 0001599 197.4819 160.3445  2.13104373 91972
COSMOS 2432 (719)       
1 32276U 07052B   19235.52471840 -.00000006  00000-0  10000-3 0  9996
2 32276  65.8930  38.9740 0008656 340.8021 349.8559  2.13103928 92033
COSMOS 2434 (721)       
1 32393U 07065A   19234.32309559  .00000040  00000-0  00000-0 0  9997
2 32393  64.6932 276.7207 0002926 148.3763 276.9004  2.13103038 90721
COSMOS 2436 (723)       
1 32395U 07065C   19235.57547299  .00000052  00000-0  10000-3 0  9999
2 32395  64.7008 276.7365 0014617 352.4905   6.1831  2.13104357 90679
COSMOS 2456 (730)       
1 36111U 09070A   19235.57374266  .00000010  00000-0  00000+0 0  9998
2 36111  64.2041 156.3212 0005223 310.7917 167.1146  2.13103042 75410
COSMOS 2457 (733)       
1 36112U 09070B   19235.43169072  .00000010  00000-0  00000+0 0  9991
2 36112  64.1863 156.2260 0005039 179.3445 314.3145  2.13101570 75413
COSMOS 2459 (731)       
1 36400U 10007A   19233.74584660 -.00000016  00000-0  10000-3 0  9991
2 36400  65.7823  37.9576 0024869 355.5397 314.9355  2.13102104 73722
COSMOS 2461 (735)       
1 36401U 10007B   19234.91048575 -.00000010  00000-0  10000-3 0  9996
2 36401  65.7777  37.8888 0008841  75.4414 319.0347  2.13102088 73757
COSMOS 2460 (732)       
1 36402U 10007C   19234.57509193 -.00000012  00000-0  10000-3 0  9999
2 36402  65.7671  37.8647 0002440 110.4242  66.4680  2.13101452 73748
COSMOS 2464 (736)       
1 37139U 10041C   19235.39207617  .00000050  00000-0  00000+0 0  9998
2 37139  64.2933 276.2749 0023336   8.1365  23.0205  2.13100689 69837
COSMOS 2474 (742)       
1 37829U 11055A   19235.41534264  .00000012  00000-0  00000+0 0  9992
2 37829  64.5251 157.2246 0009682 249.1159 323.3827  2.13101902 61405
COSMOS 2476 (744)       
1 37867U 11064A   19235.11449764  .00000014  00000-0  00000+0 0  9993
2 37867  64.5057 157.2856 0019899 241.6941 146.1732  2.13101965 60757
COSMOS 2477 (745)       
1 37868U 11064B   19235.48190131  .00000011  00000-0  00000+0 0  9992
2 37868  64.5133 157.3266 0017532 242.7163 245.6587  2.13101884 60718
COSMOS 2475 (743)       
1 37869U 11064C   19235.17276411  .00000013  00000-0  00000+0 0  9997
2 37869  64.5208 157.3358 0021804 264.7836 303.5874  2.13102279 60714
COSMOS 2485 (747)       
1 39155U 13019A   19234.82264836  .00000016  00000-0  00000+0 0  9991
2 39155  64.6752 157.4995 0020346 237.3157 331.3590  2.13102056 49218
COSMOS 2492 (754)       
1 39620U 14012A   19235.23514201 -.00000009  00000-0  10000-3 0  9990
2 39620  65.6560  37.6673 0011908 333.4863 226.7269  2.13103308 42170
COSMOS 2500 (755)       
1 40001U 14032A   19235.52670799 -.00000009  00000-0  00000+0 0  9999
2 40001  65.6001  37.5945 0006374 184.8075 100.3670  2.13102590 40397
COSMOS 2501 (702K)      
1 40315U 14075A   19235.38739909  .00000047  00000-0  00000+0 0  9998
2 40315  64.0148 277.3309 0017742 209.6399 126.0652  2.13098667 36797
COSMOS 2514 (751)       
1 41330U 16008A   19234.95227514 -.00000011  00000-0  00000-0 0  9993
2 41330  65.4021  37.5606 0009587 201.7070 184.6043  2.13103341 27557
COSMOS 2516 (753)       
1 41554U 16032A   19235.49746843  .00000049  00000-0  00000+0 0  9998
2 41554  64.2364 277.3132 0014802 219.8311 115.3003  2.13101749 25166
COSMOS 2522 (752)       
1 42939U 17055A   19234.41352581  .00000039  00000-0  00000-0 0  9995
2 42939  64.4682 277.4413 0009656 241.9584 208.1091  2.13101946 14908
COSMOS 2527 (756)       
1 43508U 18053A   19235.43436316  .00000012  00000-0  00000+0 0  9999
2 43508  64.8382 157.2635 0008115 239.1961 305.3709  2.13102617  9210
COSMOS 2529 (757)       
1 43687U 18086A   19235.41475874  .00000049  00000-0  00000+0 0  9993
2 43687  64.6806 277.4512 0011740 263.5975 190.2800  2.13102040  6232
COSMOS 2534 (758)       
1 44299U 19030A   19235.57314307  .00000051  00000-0  00000+0 0  9996
2 44299  64.7502 277.2323 0014301 281.7792  68.8095  2.13101973  1874
